ONEWEB-0710             
1 55173U 23004AK  24063.82976704  .00000058  00000+0  11556-3 0  9991
2 55173  87.9261 172.0625 0001689 113.9479 246.1829 13.17650054 57575
ONEWEB-0711             
1 55174U 23004AL  24063.87849289  .00000295  00000+0  79758-3 0  9995
2 55174  87.9024 187.1449 0002477 125.3012 234.8348 13.11413088 56353
ONEWEB-0713             
1 55175U 23004AM  24063.89633624 -.00000338  00000+0 -98984-3 0  9994
2 55175  87.9026 187.1487 0002057 114.8699 245.2643 13.11413802 56343
ONEWEB-0715             
1 55176U 23004AN  24063.89147083 -.00000291  00000+0 -85682-3 0  9993
2 55176  87.9023 187.1503 0002045 109.6194 250.5155 13.11412730 56389
ONEWEB-0716             
1 55177U 23004AP  24063.82344004  .00000078  00000+0  16753-3 0  9993
2 55177  87.9263 172.0528 0001902  98.7133 261.4214 13.17650224 57575
ONEWEB-0717             
1 55178U 23004AQ  24063.80603914  .00000021  00000+0  21695-4 0  9990
2 55178  87.9262 172.0225 0002206 135.0647 225.0663 13.17649710 57620
ONEWEB-0719             
1 55179U 23004AR  24063.81711318 -.00000044  00000+0 -14662-3 0  9992
2 55179  87.9258 172.0070 0002180 106.1225 254.0147 13.17648417 57572
ONEWEB-0530             
1 55796U 23029A   24063.49305820  .00000034  00000+0  51415-4 0  9990
2 55796  87.9127  80.7933 0002286 106.2722 253.8663 13.20771459 50834
